COSMOS 2433 (720)       
1 32275C 07052A   20334.99979167 -.00000001  00000-0  00000-0 0  3347
2 32275  66.0229  23.4149 0005206 245.0870  65.2739  2.13104478    11
COSMOS 2432 (719)       
1 32276C 07052B   20334.99979167 -.00000001  00000-0  00000-0 0  3348
2 32276  66.0356  23.5065 0010419 315.2880 304.8379  2.13103645    11
COSMOS 2434 (721)       
1 32393C 07065A   20334.99979167 -.00000000  00000-0  00000-0 0  3341
2 32393  64.5194 260.7427 0002199  74.5085 123.7353  2.13103062    12
COSMOS 2436 (723)       
1 32395C 07065C   19331.99979167  .00000001  00000-0  00000-0 0  3315
2 32395  64.6628 273.4180 0015428 335.5981 236.1653  2.13280743    12
COSMOS 2456 (730)       
1 36111C 09070A   20334.99979167  .00000001  00000-0  00000-0 0  3341
2 36111  64.2481 140.4214 0002167 354.7978  16.6391  2.13099402    11
COSMOS 2457 (733)       
1 36112C 09070B   19331.99979167 -.00000000  00000-0  00000-0 0  3314
2 36112  64.1929 152.9203 0006907 146.4578 270.9332  2.13101641    11
COSMOS 2459 (731)       
1 36400C 10007A   20330.99979167 -.00000002  00000-0  00000-0 0  3308
2 36400  65.9178  22.4636 0018434   1.3868 338.5011  2.13103875    12
COSMOS 2460 (732)       
1 36402C 10007C   20324.99979167 -.00000002  00000-0  00000-0 0  3246
2 36402  65.9038  22.6237 0002105 226.0667 133.6183  2.13101313    18
COSMOS 2464 (736)       
1 37139C 10041C   20334.99979167 -.00000000  00000-0  00000-0 0  3342
2 37139  64.1190 260.0992 0027719   8.8518  51.7729  2.13100893    19
COSMOS 2476 (744)       
1 37867C 11064A   20334.99979167  .00000001  00000-0  00000-0 0  3346
2 37867  64.5453 141.5558 0018452 231.5391  40.4988  2.13102062    14
COSMOS 2477 (745)       
1 37868C 11064B   20334.99979167  .00000001  00000-0  00000-0 0  3347
2 37868  64.5533 141.6142 0015951 232.0096 218.4668  2.13101852    11
COSMOS 2475 (743)       
1 37869C 11064C   20334.99979167  .00000001  00000-0  00000-0 0  3348
2 37869  64.5607 141.6172 0019295 256.1851 151.8459  2.13102083    13
COSMOS 2485 (747)       
1 39155C 13019A   20334.99979167  .00000001  00000-0  00000-0 0  3340
2 39155  64.7123 141.8613 0019156 226.9155  89.6721  2.13102076    10
COSMOS 2492 (754)       
1 39620C 14012A   20334.99979167 -.00000001  00000-0  00000-0 0  3342
2 39620  65.7946  22.0503 0013795 314.6279  36.9002  2.13103474    14
COSMOS 2500 (755)       
1 40001C 14032A   20331.99979167 -.00000002  00000-0  00000-0 0  3314
2 40001  65.7346  22.0541 0008351 213.5877 216.5699  2.13102716    14
COSMOS 2501 (702)       
1 40315C 14075A   20334.99979167 -.00000000  00000-0  00000-0 0  3343
2 40315  63.8334 260.9819 0016522 212.6930 164.6176  2.13101448    12
COSMOS 2514 (751)       
1 41330C 16008A   20334.99979167 -.00000001  00000-0  00000-0 0  3340
2 41330  65.5374  21.7849 0012075 219.7416 174.6668  2.13103106    15
COSMOS 2516 (753)       
1 41554C 16032A   20323.99979167  .00000002  00000-0  00000-0 0  3231
2 41554  64.0616 261.4821 0013091 224.0258 262.6743  2.13101754    10
COSMOS 2522 (752)       
1 42939C 17055A   20334.99979167 -.00000000  00000-0  00000-0 0  3348
2 42939  64.2910 261.3285 0007870 254.1073 258.0389  2.13102120    10
COSMOS 2527 (756)       
1 43508C 18053A   20334.99979167  .00000001  00000-0  00000-0 0  3340
2 43508  64.8766 141.7433 0006405 212.8946 331.2197  2.13102742    18
COSMOS 2529 (757)       
1 43687C 18086A   20334.99979167 -.00000000  00000-0  00000-0 0  3344
2 43687  64.5049 261.4926 0010556 275.0148 192.7164  2.13102214    19
COSMOS 2534 (758)       
1 44299C 19030A   20334.99979167 -.00000000  00000-0  00000-0 0  3344
2 44299  64.5753 261.3248 0013798 292.2000 310.4866  2.13101917    13
COSMOS 2544 (759)       
1 44850C 19088A   20334.99979167  .00000001  00000-0  00000-0 0  3340
2 44850  64.8610 141.6077 0009306 258.5073 329.5362  2.13102505    12
COSMOS 2545 (760)       
1 45358C 20018A   19320.99979167 -.00000001  00000-0  00000-0 0  3208
2 45358  65.8070  35.0079 0005134  75.6998 123.1059  2.13101688    16
